CALSPHERE 1             
1 00900U 64063C   13022.18608068  .00000396  00000-0  42954-3 0  9022
2 00900  90.1419 347.6245 0025493 258.0361 101.7944 13.71396333399628
CALSPHERE 2             
1 00902U 64063E   13022.84856529  .00000075  00000-0  10000-3 0  7719
2 00902  90.1397 350.1191 0019980  33.7023 326.5390 13.52536241195204
LCS 1                   
1 01361U 65034C   13020.90215728  .00000009  00000-0  10000-3 0  4212
2 01361  32.1435 279.9959 0005386  56.4815 303.6196  9.89283571725455
TEMPSAT 1               
1 01512U 65065E   13022.22910687  .00000064  00000-0  11070-3 0  8287
2 01512  89.7876 273.8800 0068376 310.0535 166.1561 13.33314425307859
CALSPHERE 4(A)          
1 01520U 65065H   13021.24337412  .00000060  00000-0  10000-3 0    28
2 01520  90.1478 104.8398 0068553 223.1859 136.3896 13.35479264309629
OPS 5712 (P/L 160)      
1 02826U 67053A   13022.22451634  .00001119  00000-0  36366-3 0  8116
2 02826  69.9333  19.2745 0003916 181.2048 178.9073 14.41381656356518
OPS 5712 (P/L 153)      
1 02874U 67053H   13021.92915397 -.00000037  00000-0  11810-4 0  3073
2 02874  69.9747 157.8740 0005026  50.9179  96.7762 13.96061899324021
SURCAL 150B             
1 02909U 67053J   13022.51386681  .00003031  00000-0  78696-3 0   118
2 02909  69.9465 154.3855 0006791 257.6212 102.4159 14.50628468363367
RIGIDSPHERE 2 (LCS 4)   
1 05398U 71067E   13022.97827731  .00000349  00000-0  12055-3 0  6942
2 05398  87.6198 248.3293 0065041 171.9956 188.2278 14.32004859172799
